<?xml version="1.0" encoding="UTF-8"?>
<kml xmlns="http://www.opengis.net/kml/2.2">
  <Document>
    <name>Ruta natural por el Camí de Cavalls</name>
    <Style id="lineaRuta">
      <LineStyle>
        <color>ff5c3a8f</color>
        <width>5</width>
      </LineStyle>
    </Style>
    <Placemark>
      <name>Ruta natural por el Camí de Cavalls</name>
      <styleUrl>#lineaRuta</styleUrl>
      <LineString>
        <tessellate>1</tessellate>
        <altitudeMode>clampToGround</altitudeMode>
        <coordinates>
          4.265800,39.888500,5
          4.297500,39.901900,10
          4.286500,39.925000,8
          4.273000,39.948200,4
          4.256000,39.948000,2
          4.252500,39.996700,5
          4.263700,39.997700,12
          4.269000,39.999300,4
        </coordinates>
      </LineString>
    </Placemark>
  </Document>
</kml>
