<?xml version="1.0" encoding="UTF-8"?>
<kml xmlns="http://www.opengis.net/kml/2.2">
  <Document>
    <name>Ruta histórica por Dalt Vila</name>
    <Style id="lineaRuta">
      <LineStyle>
        <color>ff5c3a8f</color>
        <width>5</width>
      </LineStyle>
    </Style>
    <Placemark>
      <name>Ruta histórica por Dalt Vila</name>
      <styleUrl>#lineaRuta</styleUrl>
      <LineString>
        <tessellate>1</tessellate>
        <altitudeMode>clampToGround</altitudeMode>
        <coordinates>
          1.435000,38.908900,12
          1.435000,38.908900,12
          1.435500,38.908300,18
          1.436200,38.909300,35
          1.436900,38.906800,68
          1.434100,38.906900,42
        </coordinates>
      </LineString>
    </Placemark>
  </Document>
</kml>
